{
    "links": {
        "self": "http://www.neowsapp.com/rest/v1/neo/3337735?api_key=iIulBulltgU6a56xZRHN4H3l9WmuAYTsLGpBGhQ2"
    },
    "id": "3337735",
    "neo_reference_id": "3337735",
    "name": "(2006 OE10)",
    "designation": "2006 OE10",
    "nasa_jpl_url": "http://ssd.jpl.nasa.gov/sbdb.cgi?sstr=3337735",
    "absolute_magnitude_h": 24.8,
    "estimated_diameter": {
        "kilometers": {
            "estimated_diameter_min": 0.0291443905,
            "estimated_diameter_max": 0.0651688382
        },
        "meters": {
            "estimated_diameter_min": 29.1443904535,
            "estimated_diameter_max": 65.1688382168
        },
        "miles": {
            "estimated_diameter_min": 0.018109479,
            "estimated_diameter_max": 0.0404940262
        },
        "feet": {
            "estimated_diameter_min": 95.6180819754,
            "estimated_diameter_max": 213.8085311752
        }
    },
    "is_potentially_hazardous_asteroid": false,
    "close_approach_data": [
        {
            "close_approach_date": "1947-06-10",
            "close_approach_date_full": "1947-Jun-10 08:56",
            "epoch_date_close_approach": -711990240000,
            "relative_velocity": {
                "kilometers_per_second": "6.459526825",
                "kilometers_per_hour": "23254.2965698307",
                "miles_per_hour": "14449.3155547373"
            },
            "miss_distance": {
                "astronomical": "0.0849852491",
                "lunar": "33.0592618999",
                "kilometers": "12713612.246779417",
                "miles": "7899872.3282012746"
            },
            "orbiting_body": "Mars"
        },
        {
            "close_approach_date": "1953-06-19",
            "close_approach_date_full": "1953-Jun-19 02:12",
            "epoch_date_close_approach": -521848080000,
            "relative_velocity": {
                "kilometers_per_second": "8.102633869",
                "kilometers_per_hour": "29169.4819285246",
                "miles_per_hour": "18124.7817016435"
            },
            "miss_distance": {
                "astronomical": "0.1502498123",
                "lunar": "58.4471769847",
                "kilometers": "22477051.887979801",
                "miles": "13966592.4036952138"
            },
            "orbiting_body": "Earth"
        },
        {
            "close_approach_date": "1970-06-01",
            "close_approach_date_full": "1970-Jun-01 09:23",
            "epoch_date_close_approach": 13080180000,
            "relative_velocity": {
                "kilometers_per_second": "15.5328446478",
                "kilometers_per_hour": "55918.2407322132",
                "miles_per_hour": "34745.4201927466"
            },
            "miss_distance": {
                "astronomical": "0.3924521864",
                "lunar": "152.6639005096",
                "kilometers": "58710011.162282968",
                "miles": "36480709.3032742384"
            },
            "orbiting_body": "Earth"
        },
        {
            "close_approach_date": "1972-08-29",
            "close_approach_date_full": "1972-Aug-29 03:11",
            "epoch_date_close_approach": 83905860000,
            "relative_velocity": {
                "kilometers_per_second": "13.4798407852",
                "kilometers_per_hour": "48527.4268267114",
                "miles_per_hour": "30153.0558524085"
            },
            "miss_distance": {
                "astronomical": "0.3180700496",
                "lunar": "123.7292492944",
                "kilometers": "47582601.930954352",
                "miles": "29566457.8250279776"
            },
            "orbiting_body": "Earth"
        },
        {
            "close_approach_date": "2006-07-23",
            "close_approach_date_full": "2006-Jul-23 02:11",
            "epoch_date_close_approach": 1153620660000,
            "relative_velocity": {
                "kilometers_per_second": "4.6114207032",
                "kilometers_per_hour": "16601.1145316008",
                "miles_per_hour": "10315.2869710383"
            },
            "miss_distance": {
                "astronomical": "0.0480493852",
                "lunar": "18.6912108428",
                "kilometers": "7188085.680729524",
                "miles": "4466469.3290704712"
            },
            "orbiting_body": "Earth"
        }
    ],
    "orbital_data": {
        "orbit_id": "14",
        "orbit_determination_date": "2017-04-06 09:08:21",
        "first_observation_date": "2006-07-26",
        "last_observation_date": "2006-08-29",
        "data_arc_in_days": 34,
        "observations_used": 44,
        "orbit_uncertainty": "7",
        "minimum_orbit_intersection": ".0482143",
        "jupiter_tisserand_invariant": "4.200",
        "epoch_osculation": "2459000.5",
        "eccentricity": ".3585867964002524",
        "semi_major_axis": "1.652393897543158",
        "inclination": "2.465628254532825",
        "ascending_node_longitude": "323.772869616057",
        "orbital_period": "775.8339863739378",
        "perihelion_distance": "1.05986726343183",
        "perihelion_argument": "332.9367011635011",
        "aphelion_distance": "2.244920531654486",
        "perihelion_time": "2459366.984131330787",
        "mean_anomaly": "189.9452078714515",
        "mean_motion": ".4640167952457893",
        "equinox": "J2000",
        "orbit_class": {
            "orbit_class_type": "AMO",
            "orbit_class_description": "Near-Earth asteroid orbits similar to that of 1221 Amor",
            "orbit_class_range": "1.017 AU < q (perihelion) < 1.3 AU"
        }
    },
    "is_sentry_object": false
}